NORAD_CAT_ID,OBJECT_NAME,OBJECT_TYPE,EPOCH,MEAN_MOTION,ECCENTRICITY,INCLINATION,RA_OF_ASC_NODE,ARG_OF_PERICENTER,MEAN_ANOMALY,BSTAR,MEAN_MOTION_DOT,MEAN_MOTION_DDOT,TLE_LINE0,TLE_LINE1,TLE_LINE2,SEMIMAJOR_AXIS,PERIOD,APOGEE,PERIGEE,DECAYED
53410.0,STARLINK-4492,PAYLOAD,2022-09-16 14:00:01,15.68955331,0.0001333,53.2172,63.024,62.5135,126.4053,-0.010029,-0.01057657,0.0,0 STARLINK-4492,1 53410U 22097Y   22259.58334491 -.01057657  00000-0 -10029-1 0  9996,2 53410  53.2172  63.0240 0001333  62.5135 126.4053 15.68955331  1303,6740.024,91.781,362.788,360.991,0.0
53410.0,STARLINK-4492,PAYLOAD,2022-09-16 22:00:00,15.68188337,0.0001197,53.2173,61.3814,60.8045,211.4773,-0.010234,-0.01046669,0.0,0 STARLINK-4492,1 53410U 22097Y   22259.91667824 -.01046669  00000-0 -10234-1 0  9991,2 53410  53.2173  61.3814 0001197  60.8045 211.4773 15.68188337  1309,6742.222,91.826,364.894,363.28,0.0
53410.0,STARLINK-4492,PAYLOAD,2022-09-17 14:00:01,15.66672457,0.0001401,53.2177,58.104,44.0226,32.2378,-0.0109489999999999,-0.01051752,0.0,0 STARLINK-4492,1 53410U 22097Y   22260.58334491 -.01051752  00000-0 -10949-1 0  9999,2 53410  53.2177  58.1040 0001401  44.0226  32.2378 15.66672457  1300,6746.57,91.915,369.38,367.49,0.0
53410.0,STARLINK-4492,PAYLOAD,2022-09-17 22:00:00,15.65908518,0.0001450999999999,53.2173,56.4698,48.1523,108.7293,-0.0112,-0.01043875,0.0,0 STARLINK-4492,1 53410U 22097Y   22260.91667824 -.01043875  00000-0 -11200-1 0  9993,2 53410  53.2173  56.4698 0001451  48.1523 108.7293 15.65908518  1300,6748.764,91.959,371.608,369.65,0.0
53410.0,STARLINK-4492,PAYLOAD,2022-09-18 14:00:01,15.64389415,0.0001286,53.2173,53.2053,51.4619,263.9888,-0.011933,-0.01045934,0.0,0 STARLINK-4492,1 53410U 22097Y   22261.58335648 -.01045934  00000-0 -11933-1 0  9994,2 53410  53.2173  53.2053 0001286  51.4619 263.9888 15.64389415  6621,6753.132,92.049,375.866,374.129,0.0
53410.0,STARLINK-4492,PAYLOAD,2022-09-18 22:00:00,15.63633163,0.0001322,53.2171,51.575,42.6555,350.6101,-0.0123209999999999,-0.01047687,0.0,0 STARLINK-4492,1 53410U 22097Y   22261.91667824 -.01047687  00000-0 -12321-1 0  9994,2 53410  53.2171  51.5750 0001322  42.6555 350.6101 15.63633163  1309,6755.31,92.093,378.068,376.282,0.0
53410.0,STARLINK-4492,PAYLOAD,2022-09-19 06:00:02,15.62871498,0.0001649,53.2173,49.9449,34.3144,75.9884,-0.012661,-0.01061203,0.0,0 STARLINK-4492,1 53410U 22097Y   22262.25002315 -.01061203  00000-0 -12661-1 0  9997,2 53410  53.2173  49.9449 0001649  34.3144  75.9884 15.62871498  6732,6757.504,92.138,380.484,378.255,0.0
53410.0,STARLINK-4492,PAYLOAD,2022-09-19 14:00:01,15.62112209,0.0001851999999999,53.2174,48.3199,34.5662,151.7278,-0.013041,-0.01061003,0.0,0 STARLINK-4492,1 53410U 22097Y   22262.58334491 -.01061003  00000-0 -13041-1 0  9997,2 53410  53.2174  48.3199 0001852  34.5662 151.7278 15.62112209  1307,6759.694,92.183,382.811,380.307,0.0
53410.0,STARLINK-4492,PAYLOAD,2022-09-19 22:00:00,15.61354636,0.0001419999999999,53.2172,46.6965,46.1282,215.3087,-0.013463,-0.01063049,0.0,0 STARLINK-4492,1 53410U 22097Y   22262.91667824 -.01063049  00000-0 -13463-1 0  9993,2 53410  53.2172  46.6965 0001420  46.1282 215.3087 15.61354636  6834,6761.88,92.228,384.705,382.785,0.0
53410.0,STARLINK-4492,PAYLOAD,2022-09-20 14:00:01,15.59836073,0.0001950999999999,53.2176,43.4528,25.0169,23.9715,-0.014296,-0.0106444,0.0,0 STARLINK-4492,1 53410U 22097Y   22263.58334491 -.01064440  00000-0 -14296-1 0  9999,2 53410  53.2176  43.4528 0001951  25.0169  23.9715 15.59836073  1302,6766.268,92.317,389.453,386.81300000000016,0.0
53410.0,STARLINK-4492,PAYLOAD,2022-09-20 22:00:01,15.59075904,0.0001699,53.2171,41.8345,36.0004,85.4593,-0.014693,-0.01062654,0.0,0 STARLINK-4492,1 53410U 22097Y   22263.91668981 -.01062654  00000-0 -14693-1 0  9996,2 53410  53.2171  41.8345 0001699  36.0004  85.4593 15.59075904  1300,6768.467,92.362,391.482,389.182,0.0
53410.0,STARLINK-4492,PAYLOAD,2022-09-21 14:00:01,15.57575628,9.44e-05,53.2171,38.6037,27.9554,235.5048,-0.015953,-0.01087133,0.0,0 STARLINK-4492,1 53410U 22097Y   22264.58334491 -.01087133  00000-0 -15953-1 0  9995,2 53410  53.2171  38.6037 0000944  27.9554 235.5048 15.57575628  7094,6772.813,92.451,395.317,394.039,0.0
53410.0,STARLINK-4492,PAYLOAD,2022-09-21 22:00:00,15.56798734,0.000132,53.2171,36.9894,44.6027,288.5346,-0.016034,-0.01063571,0.0,0 STARLINK-4492,1 53410U 22097Y   22264.91667824 -.01063571  00000-0 -16034-1 0  9992,2 53410  53.2171  36.9894 0001320  44.6027 288.5346 15.56798734  1307,6775.066,92.498,397.825,396.037,0.0
53410.0,STARLINK-4492,PAYLOAD,2022-09-22 14:00:01,15.55291846,0.0001388,53.2172,33.7693,53.488,56.2419,-0.017252,-0.01080132,0.0,0 STARLINK-4492,1 53410U 22097Y   22265.58334491 -.01080132  00000-0 -17252-1 0  9992,2 53410  53.2172  33.7693 0001388  53.4880  56.2419 15.55291846  1301,6779.441,92.587,402.247,400.365,0.0
53410.0,STARLINK-4492,PAYLOAD,2022-09-22 22:00:00,15.54521952,0.0001584,53.2167,32.1621,45.2881,131.3771,-0.017496,-0.01066094,0.0,0 STARLINK-4492,1 53410U 22097Y   22265.91667824 -.01066094  00000-0 -17496-1 0  9999,2 53410  53.2167  32.1621 0001584  45.2881 131.3771 15.54521952  1306,6781.68,92.633,404.619,402.47,0.0
53410.0,STARLINK-4492,PAYLOAD,2022-09-23 14:00:01,15.52998709,0.0001401,53.2174,28.9505,47.6516,260.1392,-0.018371,-0.01059205,0.0,0 STARLINK-4492,1 53410U 22097Y   22266.58334491 -.01059205  00000-0 -18371-1 0  9993,2 53410  53.2174  28.9505 0001401  47.6516 260.1392 15.52998709  1303,6786.113,92.724,408.929,407.028,0.0
53410.0,STARLINK-4492,PAYLOAD,2022-09-23 22:00:00,15.52240915,0.0001376999999999,53.2171,27.3481,42.4034,329.5793,-0.0189289999999999,-0.01061483,0.0,0 STARLINK-4492,1 53410U 22097Y   22266.91667824 -.01061483  00000-0 -18929-1 0  9999,2 53410  53.2171  27.3481 0001377  42.4034 329.5793 15.52240915  7452,6788.321999999999,92.769,411.122,409.252,0.0
53410.0,STARLINK-4492,PAYLOAD,2022-09-24 14:00:01,15.50603802,0.0001834,53.2172,24.1502,35.1403,102.5744,-0.013518,-0.00728445,0.0,0 STARLINK-4492,1 53410U 22097Y   22267.58335648 -.00728445  00000-0 -13518-1 0  9995,2 53410  53.2172  24.1502 0001834  35.1403 102.5744 15.50603802  1308,6793.099,92.867,416.21,413.718,0.0
53410.0,STARLINK-4492,PAYLOAD,2022-09-24 22:00:00,15.49969274,0.0001629999999999,53.2171,22.555,45.236,153.8884,-0.0024009,-0.00134802,0.0,0 STARLINK-4492,1 53410U 22097Y   22267.91667824 -.00134802  00000-0 -24009-2 0  9992,2 53410  53.2171  22.5550 0001630  45.2360 153.8884 15.49969274  7610,6794.953,92.905,417.925,415.71,0.0
53410.0,STARLINK-4492,PAYLOAD,2022-09-25 06:00:00,15.50028286,0.0001392,53.2165,20.9638,40.4746,219.4658,-0.0020853,-0.00117638,0.0,0 STARLINK-4492,1 53410U 22097Y   22268.25001157 -.00117638  00000-0 -20853-2 0  9992,2 53410  53.2165  20.9638 0001392  40.4746 219.4658 15.50028286  7666,6794.78,92.902,417.591,415.7,0.0
53410.0,STARLINK-4492,PAYLOAD,2022-09-25 14:00:01,15.49884622,0.0001684,53.2172,19.369,43.2736,277.7195,1.6854e-05,5.05e-06,0.0,0 STARLINK-4492,1 53410U 22097Y   22268.58334491  .00000505  00000-0  16854-4 0  9998,2 53410  53.2172  19.3690 0001684  43.2736 277.7195 15.49884622  1308,6795.2,92.91,418.21,415.921,0.0
53410.0,STARLINK-4492,PAYLOAD,2022-09-25 22:00:01,15.49886216,0.0001636999999999,53.2173,17.7754,41.5146,340.4572,-2.2096e-05,-1.706e-05,0.0,0 STARLINK-4492,1 53410U 22097Y   22268.91668981 -.00001706  00000-0 -22096-4 0  9990,2 53410  53.2173  17.7754 0001637  41.5146 340.4572 15.49886216  1304,6795.196,92.91,418.173,415.948,0.0
53410.0,STARLINK-4492,PAYLOAD,2022-09-26 14:00:01,15.49925871,0.0001885999999999,53.2168,14.6009,38.8386,104.8556,-1.235e-06,-5.22e-06,0.0,0 STARLINK-4492,1 53410U 22097Y   22269.58334491 -.00000522  00000-0 -12350-5 0  9998,2 53410  53.2168  14.6009 0001886  38.8386 104.8556 15.49925871  1303,6795.08,92.908,418.226,415.663,0.0
53410.0,STARLINK-4492,PAYLOAD,2022-09-26 22:00:00,15.50037857,0.0001915,53.2167,13.0026,37.4207,167.229,-0.0052619999999999,-0.00289907,0.0,0 STARLINK-4492,1 53410U 22097Y   22269.91667824 -.00289907  00000-0 -52620-2 0  9991,2 53410  53.2167  13.0026 0001915  37.4207 167.2290 15.50037857  7926,6794.752,92.901,417.919,415.316,0.0
53410.0,STARLINK-4492,PAYLOAD,2022-09-27 06:00:00,15.49872326,0.0001921,53.2167,11.413,47.8696,217.7414,0.00075832,0.00042804,0.0,0 STARLINK-4492,1 53410U 22097Y   22270.25001157  .00042804  00000-0  75832-3 0  9993,2 53410  53.2167  11.4130 0001921  47.8696 217.7414 15.49872326  7978,6795.236,92.911,418.407,415.796,0.0
53410.0,STARLINK-4492,PAYLOAD,2022-09-27 14:00:01,15.49893872,0.0002165999999999,53.2165,9.822,43.4077,283.1211,5.2913e-05,2.553e-05,0.0,0 STARLINK-4492,1 53410U 22097Y   22270.58334491  .00002553  00000-0  52913-4 0  9992,2 53410  53.2165   9.8220 0002166  43.4077 283.1211 15.49893872  1306,6795.1730000000025,92.91,418.51,415.566,0.0
53410.0,STARLINK-4492,PAYLOAD,2022-09-27 22:00:01,15.49926574,0.0002094,53.2159,8.2283,43.979,343.543,-0.0002744,-0.00016018,0.0,0 STARLINK-4492,1 53410U 22097Y   22270.91668981 -.00016018  00000-0 -27440-3 0  9992,2 53410  53.2159   8.2283 0002094  43.9790 343.5430 15.49926574  1308,6795.078,92.908,418.366,415.52,0.0
53410.0,STARLINK-4492,PAYLOAD,2022-09-28 14:00:01,15.49950829,0.000204,53.216,5.0429,40.7831,108.6073,-0.0018995,-0.00107055,0.0,0 STARLINK-4492,1 53410U 22097Y   22271.58334491 -.00107055  00000-0 -18995-2 0  9998,2 53410  53.2160   5.0429 0002040  40.7831 108.6073 15.49950829  8185,6795.007,92.906,418.258,415.486,0.0
53410.0,STARLINK-4492,PAYLOAD,2022-09-28 22:00:00,15.49900904,0.0001989,53.216,3.4488,39.3646,170.9596,-0.0024096,-0.00134966,0.0,0 STARLINK-4492,1 53410U 22097Y   22271.91667824 -.00134966  00000-0 -24096-2 0  9994,2 53410  53.2160   3.4488 0001989  39.3646 170.9596 15.49900904  1309,6795.153,92.909,418.369,415.666,0.0
